CCSDS_OMM_VERS = 2.0
CREATION_DATE  = 
ORIGINATOR     = 

OBJECT_NAME    = HULIANWANG DIGUI-122
OBJECT_ID      = 2025-295D
CENTER_NAME    = EARTH
REF_FRAME      = TEME
TIME_SYSTEM    = UTC
MEAN_ELEMENT_THEORY = SGP/SGP4

EPOCH          = 2026-01-01T02:57:56.747808
MEAN_MOTION    = 14.24617295
ECCENTRICITY   = .0013041
INCLINATION    = 50.0047
RA_OF_ASC_NODE = 290.4402
ARG_OF_PERICENTER = 320.8256
MEAN_ANOMALY   = 39.1712

EPHEMERIS_TYPE = 0
CLASSIFICATION_TYPE = U
NORAD_CAT_ID   = 67062
ELEMENT_SET_NO = 999
REV_AT_EPOCH   = 288
BSTAR          = .30213E-3
MEAN_MOTION_DOT = .547E-5
MEAN_MOTION_DDOT = 0

CCSDS_OMM_VERS = 2.0
CREATION_DATE  = 
ORIGINATOR     = 

OBJECT_NAME    = HULIANWANG DIGUI-123
OBJECT_ID      = 2025-295E
CENTER_NAME    = EARTH
REF_FRAME      = TEME
TIME_SYSTEM    = UTC
MEAN_ELEMENT_THEORY = SGP/SGP4

EPOCH          = 2026-01-01T02:56:28.797792
MEAN_MOTION    = 14.24622958
ECCENTRICITY   = .0011982
INCLINATION    = 50.0053
RA_OF_ASC_NODE = 290.4379
ARG_OF_PERICENTER = 320.3594
MEAN_ANOMALY   = 39.6443

EPHEMERIS_TYPE = 0
CLASSIFICATION_TYPE = U
NORAD_CAT_ID   = 67063
ELEMENT_SET_NO = 999
REV_AT_EPOCH   = 288
BSTAR          = .30827E-3
MEAN_MOTION_DOT = .562E-5
MEAN_MOTION_DDOT = 0

CCSDS_OMM_VERS = 2.0
CREATION_DATE  = 
ORIGINATOR     = 

OBJECT_NAME    = HULIANWANG DIGUI-124
OBJECT_ID      = 2025-295F
CENTER_NAME    = EARTH
REF_FRAME      = TEME
TIME_SYSTEM    = UTC
MEAN_ELEMENT_THEORY = SGP/SGP4

EPOCH          = 2026-01-01T02:55:05.347488
MEAN_MOTION    = 14.24626928
ECCENTRICITY   = .0011852
INCLINATION    = 50.0012
RA_OF_ASC_NODE = 290.4148
ARG_OF_PERICENTER = 314.0240
MEAN_ANOMALY   = 45.9696

EPHEMERIS_TYPE = 0
CLASSIFICATION_TYPE = U
NORAD_CAT_ID   = 67064
ELEMENT_SET_NO = 999
REV_AT_EPOCH   = 288
BSTAR          = .30952E-3
MEAN_MOTION_DOT = .565E-5
MEAN_MOTION_DDOT = 0

CCSDS_OMM_VERS = 2.0
CREATION_DATE  = 
ORIGINATOR     = 

OBJECT_NAME    = HULIANWANG DIGUI-125
OBJECT_ID      = 2025-295G
CENTER_NAME    = EARTH
REF_FRAME      = TEME
TIME_SYSTEM    = UTC
MEAN_ELEMENT_THEORY = SGP/SGP4

EPOCH          = 2026-01-01T02:53:32.585856
MEAN_MOTION    = 14.24634794
ECCENTRICITY   = .0011975
INCLINATION    = 50.0004
RA_OF_ASC_NODE = 290.4060
ARG_OF_PERICENTER = 321.9756
MEAN_ANOMALY   = 38.0311

EPHEMERIS_TYPE = 0
CLASSIFICATION_TYPE = U
NORAD_CAT_ID   = 67065
ELEMENT_SET_NO = 999
REV_AT_EPOCH   = 288
BSTAR          = .31122E-3
MEAN_MOTION_DOT = .569E-5
MEAN_MOTION_DDOT = 0

CCSDS_OMM_VERS = 2.0
CREATION_DATE  = 
ORIGINATOR     = 

OBJECT_NAME    = HULIANWANG DIGUI-126
OBJECT_ID      = 2025-295H
CENTER_NAME    = EARTH
REF_FRAME      = TEME
TIME_SYSTEM    = UTC
MEAN_ELEMENT_THEORY = SGP/SGP4

EPOCH          = 2026-01-01T02:52:06.438144
MEAN_MOTION    = 14.24655157
ECCENTRICITY   = .0011266
INCLINATION    = 50.0007
RA_OF_ASC_NODE = 290.4005
ARG_OF_PERICENTER = 315.5587
MEAN_ANOMALY   = 44.4422

EPHEMERIS_TYPE = 0
CLASSIFICATION_TYPE = U
NORAD_CAT_ID   = 67066
ELEMENT_SET_NO = 999
REV_AT_EPOCH   = 288
BSTAR          = .31612E-3
MEAN_MOTION_DOT = .581E-5
MEAN_MOTION_DDOT = 0

CCSDS_OMM_VERS = 2.0
CREATION_DATE  = 
ORIGINATOR     = 

OBJECT_NAME    = HULIANWANG DIGUI-127
OBJECT_ID      = 2025-295J
CENTER_NAME    = EARTH
REF_FRAME      = TEME
TIME_SYSTEM    = UTC
MEAN_ELEMENT_THEORY = SGP/SGP4

EPOCH          = 2026-01-01T04:31:40.636992
MEAN_MOTION    = 14.24669998
ECCENTRICITY   = .0010705
INCLINATION    = 50.0047
RA_OF_ASC_NODE = 290.1090
ARG_OF_PERICENTER = 322.2270
MEAN_ANOMALY   = 37.7891

EPHEMERIS_TYPE = 0
CLASSIFICATION_TYPE = U
NORAD_CAT_ID   = 67067
ELEMENT_SET_NO = 999
REV_AT_EPOCH   = 289
BSTAR          = -.46578E-3
MEAN_MOTION_DOT = -.1251E-4
MEAN_MOTION_DDOT = 0

CCSDS_OMM_VERS = 2.0
CREATION_DATE  = 
ORIGINATOR     = 

OBJECT_NAME    = CZ-12 R/B
OBJECT_ID      = 2025-295K
CENTER_NAME    = EARTH
REF_FRAME      = TEME
TIME_SYSTEM    = UTC
MEAN_ELEMENT_THEORY = SGP/SGP4

EPOCH          = 2026-01-01T04:20:34.930176
MEAN_MOTION    = 14.41133563
ECCENTRICITY   = .0056867
INCLINATION    = 49.9938
RA_OF_ASC_NODE = 288.0155
ARG_OF_PERICENTER = 205.5759
MEAN_ANOMALY   = 154.2346

EPHEMERIS_TYPE = 0
CLASSIFICATION_TYPE = U
NORAD_CAT_ID   = 67068
ELEMENT_SET_NO = 999
REV_AT_EPOCH   = 291
BSTAR          = .79825E-4
MEAN_MOTION_DOT = .96E-6
MEAN_MOTION_DDOT = 0

CCSDS_OMM_VERS = 2.0
CREATION_DATE  = 
ORIGINATOR     = 

OBJECT_NAME    = XIWANG-5 02
OBJECT_ID      = 2025-296A
CENTER_NAME    = EARTH
REF_FRAME      = TEME
TIME_SYSTEM    = UTC
MEAN_ELEMENT_THEORY = SGP/SGP4

EPOCH          = 2026-01-01T03:32:56.304096
MEAN_MOTION    = 15.12964410
ECCENTRICITY   = .0002998
INCLINATION    = 41.3529
RA_OF_ASC_NODE = 351.1624
ARG_OF_PERICENTER = 311.4103
MEAN_ANOMALY   = 48.6459

EPHEMERIS_TYPE = 0
CLASSIFICATION_TYPE = U
NORAD_CAT_ID   = 67069
ELEMENT_SET_NO = 999
REV_AT_EPOCH   = 290
BSTAR          = .10113E-2
MEAN_MOTION_DOT = .18023E-3
MEAN_MOTION_DDOT = 0

CCSDS_OMM_VERS = 2.0
CREATION_DATE  = 
ORIGINATOR     = 

OBJECT_NAME    = DEAR-5
OBJECT_ID      = 2025-296B
CENTER_NAME    = EARTH
REF_FRAME      = TEME
TIME_SYSTEM    = UTC
MEAN_ELEMENT_THEORY = SGP/SGP4

EPOCH          = 2026-01-01T02:59:23.323200
MEAN_MOTION    = 15.17005174
ECCENTRICITY   = .0019265
INCLINATION    = 41.3577
RA_OF_ASC_NODE = 350.9939
ARG_OF_PERICENTER = 156.9178
MEAN_ANOMALY   = 203.2512

EPHEMERIS_TYPE = 0
CLASSIFICATION_TYPE = U
NORAD_CAT_ID   = 67070
ELEMENT_SET_NO = 999
REV_AT_EPOCH   = 289
BSTAR          = .49195E-3
MEAN_MOTION_DOT = .9764E-4
MEAN_MOTION_DDOT = 0

CCSDS_OMM_VERS = 2.0
CREATION_DATE  = 
ORIGINATOR     = 

OBJECT_NAME    = RAISE-4
OBJECT_ID      = 2025-297B
CENTER_NAME    = EARTH
REF_FRAME      = TEME
TIME_SYSTEM    = UTC
MEAN_ELEMENT_THEORY = SGP/SGP4

EPOCH          = 2025-12-31T21:15:19.651104
MEAN_MOTION    = 15.07336027
ECCENTRICITY   = .00115234
INCLINATION    = 97.4859
RA_OF_ASC_NODE = 152.9198
ARG_OF_PERICENTER = 249.0837
MEAN_ANOMALY   = 110.9158

EPHEMERIS_TYPE = 0
CLASSIFICATION_TYPE = U
NORAD_CAT_ID   = 67073
ELEMENT_SET_NO = 999
REV_AT_EPOCH   = 267
BSTAR          = .57940497E-3
MEAN_MOTION_DOT = .8711E-4
MEAN_MOTION_DDOT = 0

CCSDS_OMM_VERS = 2.0
CREATION_DATE  = 
ORIGINATOR     = 

OBJECT_NAME    = ELECTRON KICK STAGE R/B
OBJECT_ID      = 2025-297C
CENTER_NAME    = EARTH
REF_FRAME      = TEME
TIME_SYSTEM    = UTC
MEAN_ELEMENT_THEORY = SGP/SGP4

EPOCH          = 2025-12-31T21:04:45.754176
MEAN_MOTION    = 15.65622497
ECCENTRICITY   = .0171724
INCLINATION    = 97.4786
RA_OF_ASC_NODE = 154.3312
ARG_OF_PERICENTER = 200.0260
MEAN_ANOMALY   = 159.4208

EPHEMERIS_TYPE = 0
CLASSIFICATION_TYPE = U
NORAD_CAT_ID   = 67074
ELEMENT_SET_NO = 999
REV_AT_EPOCH   = 276
BSTAR          = .22009E-2
MEAN_MOTION_DOT = .498399E-2
MEAN_MOTION_DDOT = .74434E-4

CCSDS_OMM_VERS = 2.0
CREATION_DATE  = 
ORIGINATOR     = 

OBJECT_NAME    = STARLINK-36230
OBJECT_ID      = 2025-298A
CENTER_NAME    = EARTH
REF_FRAME      = TEME
TIME_SYSTEM    = UTC
MEAN_ELEMENT_THEORY = SGP/SGP4

EPOCH          = 2026-01-01T04:00:01.998720
MEAN_MOTION    = 15.54700754
ECCENTRICITY   = .0003871
INCLINATION    = 69.9987
RA_OF_ASC_NODE = 195.0238
ARG_OF_PERICENTER = 272.3261
MEAN_ANOMALY   = 166.5976

EPHEMERIS_TYPE = 0
CLASSIFICATION_TYPE = U
NORAD_CAT_ID   = 67075
ELEMENT_SET_NO = 999
REV_AT_EPOCH   = 409
BSTAR          = -.24874E-1
MEAN_MOTION_DOT = -.1479361E-1
MEAN_MOTION_DDOT = 0

