HULIANWANG DIGUI-122    
1 67062U 25295D   26001.12357347  .00000547  00000+0  30213-3 0  9992
2 67062  50.0047 290.4402 0013041 320.8256  39.1712 14.24617295  2887
HULIANWANG DIGUI-123    
1 67063U 25295E   26001.12255553  .00000562  00000+0  30827-3 0  9997
2 67063  50.0053 290.4379 0011982 320.3594  39.6443 14.24622958  2888
HULIANWANG DIGUI-124    
1 67064U 25295F   26001.12158967  .00000565  00000+0  30952-3 0  9991
2 67064  50.0012 290.4148 0011852 314.0240  45.9696 14.24626928  2883
HULIANWANG DIGUI-125    
1 67065U 25295G   26001.12051604  .00000569  00000+0  31122-3 0  9996
2 67065  50.0004 290.4060 0011975 321.9756  38.0311 14.24634794  2880
HULIANWANG DIGUI-126    
1 67066U 25295H   26001.11951896  .00000581  00000+0  31612-3 0  9996
2 67066  50.0007 290.4005 0011266 315.5587  44.4422 14.24655157  2887
HULIANWANG DIGUI-127    
1 67067U 25295J   26001.18866478 -.00001251  00000+0 -46578-3 0  9999
2 67067  50.0047 290.1090 0010705 322.2270  37.7891 14.24669998  2898
CZ-12 R/B               
1 67068U 25295K   26001.18095984  .00000096  00000+0  79825-4 0  9992
2 67068  49.9938 288.0155 0056867 205.5759 154.2346 14.41133563  2913
XIWANG-5 02             
1 67069U 25296A   26001.14787389  .00018023  00000+0  10113-2 0  9999
2 67069  41.3529 351.1624 0002998 311.4103  48.6459 15.12964410  2907
DEAR-5                  
1 67070U 25296B   26001.12457550  .00009764  00000+0  49195-3 0  9998
2 67070  41.3577 350.9939 0019265 156.9178 203.2512 15.17005174  2892
RAISE-4                 
1 67073U 25297B   25365.88564411  .00008711  00000+0  57940-3 0  9990
2 67073  97.4859 152.9198 0011523 249.0837 110.9158 15.07336027  2671
ELECTRON KICK STAGE R/B 
1 67074U 25297C   25365.87830734  .00498399  74434-4  22009-2 0  9993
2 67074  97.4786 154.3312 0171724 200.0260 159.4208 15.65622497  2769
STARLINK-36230          
1 67075U 25298A   26001.16668980 -.01479361  00000+0 -24874-1 0  9992
2 67075  69.9987 195.0238 0003871 272.3261 166.5976 15.54700754  4096
